{"type": "FeatureCollection", "features": [ {"type": "Feature", "properties": {"norad_id": 65077, "name": "CREW DRAGON 11", "group": "stations", "lat": 27.93931512717223, "lon": -146.70389523341817, "alt_km": 417.75778999915383, "timestamp": "2025-12-03T10:52:56.239930+00:00", "meta": {"OBJECT_NAME": "CREW DRAGON 11", "OBJECT_ID": "2025-166A", "EPOCH": "2025-12-02T02:12:50.598720", "MEAN_MOTION": 15.49237019, "ECCENTRICITY": 0.00036389, "INCLINATION": 51.6314, "RA_OF_ASC_NODE": 195.1903, "ARG_OF_PERICENTER": 193.8265, "MEAN_ANOMALY": 166.2625, "EPHEMERIS_TYPE": 0, "CLASSIFICATION_TYPE": "U", "NORAD_CAT_ID": 65077, "ELEMENT_SET_NO": 999, "REV_AT_EPOCH": 214, "BSTAR": 0.00017380747, "MEAN_MOTION_DOT": 9.217e-05, "MEAN_MOTION_DDOT": 0}, "tle": {"line1": "1 65077U 25166A   25336.09225230  .00009217  00000+0  17381-3 0  9998", "line2": "2 65077  51.6314 195.1903 0003638 193.8265 166.2625 15.49237019  2145"}}, "geometry": {"type": "Point", "coordinates": [-146.70389523341817, 27.93931512717223]}}, {"type": "Feature", "properties": {"norad_id": 65304, "name": "DRAGON CRS-33", "group": "stations", "lat": 27.93931563275667, "lon": -146.70389466847797, "alt_km": 417.75778990782055, "timestamp": "2025-12-03T10:52:56.239941+00:00", "meta": {"OBJECT_NAME": "DRAGON CRS-33", "OBJECT_ID": "2025-186A", "EPOCH": "2025-12-02T02:12:50.598720", "MEAN_MOTION": 15.49237019, "ECCENTRICITY": 0.00036389, "INCLINATION": 51.6314, "RA_OF_ASC_NODE": 195.1903, "ARG_OF_PERICENTER": 193.8265, "MEAN_ANOMALY": 166.2625, "EPHEMERIS_TYPE": 0, "CLASSIFICATION_TYPE": "U", "NORAD_CAT_ID": 65304, "ELEMENT_SET_NO": 999, "REV_AT_EPOCH": 11, "BSTAR": 0.00017380747, "MEAN_MOTION_DOT": 9.217e-05, "MEAN_MOTION_DDOT": 0}, "tle": {"line1": "1 65304U 25186A   25336.09225230  .00009217  00000+0  17381-3 0  9993", "line2": "2 65304  51.6314 195.1903 0003638 193.8265 166.2625 15.49237019   113"}}, "geometry": {"type": "Point", "coordinates": [-146.70389466847797, 27.93931563275667]}}, {"type": "Feature", "properties": {"norad_id": 65586, "name": "PROGRESS-MS 32", "group": "stations", "lat": 27.939316046418337, "lon": -146.7038942062523, "alt_km": 417.75778983309283, "timestamp": "2025-12-03T10:52:56.239950+00:00", "meta": {"OBJECT_NAME": "PROGRESS-MS 32", "OBJECT_ID": "2025-204A", "EPOCH": "2025-12-02T02:12:50.598720", "MEAN_MOTION": 15.49237019, "ECCENTRICITY": 0.00036389, "INCLINATION": 51.6314, "RA_OF_ASC_NODE": 195.1903, "ARG_OF_PERICENTER": 193.8265, "MEAN_ANOMALY": 166.2625, "EPHEMERIS_TYPE": 0, "CLASSIFICATION_TYPE": "U", "NORAD_CAT_ID": 65586, "ELEMENT_SET_NO": 999, "REV_AT_EPOCH": 27, "BSTAR": 0.00017380747, "MEAN_MOTION_DOT": 9.217e-05, "MEAN_MOTION_DDOT": 0}, "tle": {"line1": "1 65586U 25204A   25336.09225230  .00009217  00000+0  17381-3 0  9996", "line2": "2 65586  51.6314 195.1903 0003638 193.8265 166.2625 15.49237019   272"}}, "geometry": {"type": "Point", "coordinates": [-146.7038942062523, 27.939316046418337]}}, {"type": "Feature", "properties": {"norad_id": 65616, "name": "CYGNUS NG-23", "group": "stations", "lat": 27.939316735850625, "lon": -146.70389343588047, "alt_km": 417.75778970854935, "timestamp": "2025-12-03T10:52:56.239965+00:00", "meta": {"OBJECT_NAME": "CYGNUS NG-23", "OBJECT_ID": "2025-208A", "EPOCH": "2025-12-02T02:12:50.598720", "MEAN_MOTION": 15.49237019, "ECCENTRICITY": 0.00036389, "INCLINATION": 51.6314, "RA_OF_ASC_NODE": 195.1903, "ARG_OF_PERICENTER": 193.8265, "MEAN_ANOMALY": 166.2625, "EPHEMERIS_TYPE": 0, "CLASSIFICATION_TYPE": "U", "NORAD_CAT_ID": 65616, "ELEMENT_SET_NO": 999, "REV_AT_EPOCH": 22, "BSTAR": 0.00017380747, "MEAN_MOTION_DOT": 9.217e-05, "MEAN_MOTION_DDOT": 0}, "tle": {"line1": "1 65616U 25208A   25336.09225230  .00009217  00000+0  17381-3 0  9994", "line2": "2 65616  51.6314 195.1903 0003638 193.8265 166.2625 15.49237019   221"}}, "geometry": {"type": "Point", "coordinates": [-146.70389343588047, 27.939316735850625]}}, {"type": "Feature", "properties": {"norad_id": 65729, "name": "DRAGONFLY", "group": "stations", "lat": 33.05265455581222, "lon": -145.77451409515913, "alt_km": 363.9581728614985, "timestamp": "2025-12-03T10:52:56.239975+00:00", "meta": {"OBJECT_NAME": "DRAGONFLY", "OBJECT_ID": "1998-067XH", "EPOCH": "2025-12-02T23:59:20.731200", "MEAN_MOTION": 15.68122428, "ECCENTRICITY": 0.0006566, "INCLINATION": 51.6251, "RA_OF_ASC_NODE": 185.4963, "ARG_OF_PERICENTER": 216.9941, "MEAN_ANOMALY": 143.0603, "EPHEMERIS_TYPE": 0, "CLASSIFICATION_TYPE": "U", "NORAD_CAT_ID": 65729, "ELEMENT_SET_NO": 999, "REV_AT_EPOCH": 1163, "BSTAR": 0.0013752, "MEAN_MOTION_DOT": 0.00158902, "MEAN_MOTION_DDOT": 0}, "tle": {"line1": "1 65729U 98067XH  25336.99954550  .00158902  00000+0  13752-2 0  9998", "line2": "2 65729  51.6251 185.4963 0006566 216.9941 143.0603 15.68122428 11639"}}, "geometry": {"type": "Point", "coordinates": [-145.77451409515913, 33.05265455581222]}}, {"type": "Feature", "properties": {"norad_id": 65730, "name": "1998-067XJ", "group": "stations", "lat": 51.44527438588196, "lon": -87.31429463610921, "alt_km": 184.0225535760219, "timestamp": "2025-12-03T10:52:56.239986+00:00", "meta": {"OBJECT_NAME": "1998-067XJ", "OBJECT_ID": "1998-067XJ", "EPOCH": "2025-12-02T19:46:01.269120", "MEAN_MOTION": 16.23931094, "ECCENTRICITY": 0.0010115, "INCLINATION": 51.6061, "RA_OF_ASC_NODE": 180.4655, "ARG_OF_PERICENTER": 256.3912, "MEAN_ANOMALY": 103.5981, "EPHEMERIS_TYPE": 0, "CLASSIFICATION_TYPE": "U", "NORAD_CAT_ID": 65730, "ELEMENT_SET_NO": 999, "REV_AT_EPOCH": 1168, "BSTAR": 0.0022859, "MEAN_MOTION_DOT": 0.06330363, "MEAN_MOTION_DDOT": 1.1931e-05}, "tle": {"line1": "1 65730U 98067XJ  25336.82362580  .06330363  11931-4  22859-2 0  9995", "line2": "2 65730  51.6061 180.4655 0010115 256.3912 103.5981 16.23931094 11688"}}, "geometry": {"type": "Point", "coordinates": [-87.31429463610921, 51.44527438588196]}}, {"type": "Feature", "properties": {"norad_id": 65731, "name": "1998-067XK", "group": "stations", "lat": -47.55396537780496, "lon": 64.30196057727336, "alt_km": 380.0409579585348, "timestamp": "2025-12-03T10:52:56.239996+00:00", "meta": {"OBJECT_NAME": "1998-067XK", "OBJECT_ID": "1998-067XK", "EPOCH": "2025-12-02T20:00:36.101088", "MEAN_MOTION": 15.63382318, "ECCENTRICITY": 0.0005863, "INCLINATION": 51.6285, "RA_OF_ASC_NODE": 187.4006, "ARG_OF_PERICENTER": 188.3266, "MEAN_ANOMALY": 171.7632, "EPHEMERIS_TYPE": 0, "CLASSIFICATION_TYPE": "U", "NORAD_CAT_ID": 65731, "ELEMENT_SET_NO": 999, "REV_AT_EPOCH": 1159, "BSTAR": 0.00098553, "MEAN_MOTION_DOT": 0.00093205, "MEAN_MOTION_DDOT": 0}, "tle": {"line1": "1 65731U 98067XK  25336.83375117  .00093205  00000+0  98553-3 0  9997", "line2": "2 65731  51.6285 187.4006 0005863 188.3266 171.7632 15.63382318 11596"}}, "geometry": {"type": "Point", "coordinates": [64.30196057727336, -47.55396537780496]}}, {"type": "Feature", "properties": {"norad_id": 65732, "name": "RSP-03", "group": "stations", "lat": 32.11001194677157, "lon": -26.075070407696007, "alt_km": 364.4321811341597, "timestamp": "2025-12-03T10:52:56.240007+00:00", "meta": {"OBJECT_NAME": "RSP-03", "OBJECT_ID": "1998-067XL", "EPOCH": "2025-12-02T23:34:31.952064", "MEAN_MOTION": 15.65632487, "ECCENTRICITY": 0.0006831, "INCLINATION": 51.6271, "RA_OF_ASC_NODE": 186.1351, "ARG_OF_PERICENTER": 192.2719, "MEAN_ANOMALY": 167.8111, "EPHEMERIS_TYPE": 0, "CLASSIFICATION_TYPE": "U", "NORAD_CAT_ID": 65732, "ELEMENT_SET_NO": 999, "REV_AT_EPOCH": 1163, "BSTAR": 0.0011971, "MEAN_MOTION_DOT": 0.00124452, "MEAN_MOTION_DDOT": 0}, "tle": {"line1": "1 65732U 98067XL  25336.98231426  .00124452  00000+0  11971-2 0  9995", "line2": "2 65732  51.6271 186.1351 0006831 192.2719 167.8111 15.65632487 11634"}}, "geometry": {"type": "Point", "coordinates": [-26.075070407696007, 32.11001194677157]}}, {"type": "Feature", "properties": {"norad_id": 65733, "name": "GHS-01", "group": "stations", "lat": -40.692989511662056, "lon": 45.74070883026821, "alt_km": 357.89016143540266, "timestamp": "2025-12-03T10:52:56.240017+00:00", "meta": {"OBJECT_NAME": "GHS-01", "OBJECT_ID": "1998-067XM", "EPOCH": "2025-12-02T20:07:58.918368", "MEAN_MOTION": 15.70056093, "ECCENTRICITY": 0.0006994, "INCLINATION": 51.628, "RA_OF_ASC_NODE": 185.9293, "ARG_OF_PERICENTER": 215.3541, "MEAN_ANOMALY": 144.6993, "EPHEMERIS_TYPE": 0, "CLASSIFICATION_TYPE": "U", "NORAD_CAT_ID": 65733, "ELEMENT_SET_NO": 999, "REV_AT_EPOCH": 1162, "BSTAR": 0.0014391, "MEAN_MOTION_DOT": 0.00180652, "MEAN_MOTION_DDOT": 0}, "tle": {"line1": "1 65733U 98067XM  25336.83887637  .00180652  00000+0  14391-2 0  9994", "line2": "2 65733  51.6280 185.9293 0006994 215.3541 144.6993 15.70056093 11626"}}, "geometry": {"type": "Point", "coordinates": [45.74070883026821, -40.692989511662056]}}, {"type": "Feature", "properties": {"norad_id": 65941, "name": "YOTSUBA-KULOVER", "group": "stations", "lat": -23.856380071604395, "lon": 27.10619720340931, "alt_km": 396.1485211252766, "timestamp": "2025-12-03T10:52:56.240027+00:00", "meta": {"OBJECT_NAME": "YOTSUBA-KULOVER", "OBJECT_ID": "1998-067XN", "EPOCH": "2025-12-02T15:30:17.265024", "MEAN_MOTION": 15.57709356, "ECCENTRICITY": 0.00021398, "INCLINATION": 51.6284, "RA_OF_ASC_NODE": 190.644, "ARG_OF_PERICENTER": 164.2097, "MEAN_ANOMALY": 195.8962, "EPHEMERIS_TYPE": 0, "CLASSIFICATION_TYPE": "U", "NORAD_CAT_ID": 65941, "ELEMENT_SET_NO": 999, "REV_AT_EPOCH": 828, "BSTAR": 0.00091621888, "MEAN_MOTION_DOT": 0.00069349, "MEAN_MOTION_DDOT": 0}, "tle": {"line1": "1 65941U 98067XN  25336.64603316  .00069349  00000+0  91622-3 0  9996", "line2": "2 65941  51.6284 190.6440 0002139 164.2097 195.8962 15.57709356  8287"}}, "geometry": {"type": "Point", "coordinates": [27.10619720340931, -23.856380071604395]}}]}